[{"CCSDS_OMM_VERS":"3.0","COMMENT":"GENERATED VIA SPACE-TRACK.ORG API","CREATION_DATE":"2026-05-22T22:26:34","ORIGINATOR":"18 SPCS","OBJECT_NAME":"QZS-2","OBJECT_ID":"2017-028A","CENTER_NAME":"EARTH","REF_FRAME":"TEME","TIME_SYSTEM":"UTC","MEAN_ELEMENT_THEORY":"SGP4","EPOCH":"2026-05-22T14:19:23.869920","MEAN_MOTION":"1.00290506","ECCENTRICITY":"0.07610500","INCLINATION":"39.4669","RA_OF_ASC_NODE":"243.5317","ARG_OF_PERICENTER":"268.9917","MEAN_ANOMALY":"82.9674","EPHEMERIS_TYPE":"0","CLASSIFICATION_TYPE":"U","NORAD_CAT_ID":"42738","ELEMENT_SET_NO":"999","REV_AT_EPOCH":"737","BSTAR":"0.00000000000000","MEAN_MOTION_DOT":"-0.00000229","MEAN_MOTION_DDOT":"0.0000000000000","SEMIMAJOR_AXIS":"42159.485","PERIOD":"1435.829","APOAPSIS":"38989.897","PERIAPSIS":"32572.802","OBJECT_TYPE":"PAYLOAD","RCS_SIZE":"LARGE","COUNTRY_CODE":"JPN","LAUNCH_DATE":"2017-06-01","SITE":"TNSTA","DECAY_DATE":null,"FILE":"5209272","GP_ID":"324391227","TLE_LINE0":"0 QZS-2","TLE_LINE1":"1 42738U 17028A   26142.59680405 -.00000229  00000-0  00000+0 0  9997","TLE_LINE2":"2 42738  39.4669 243.5317 0761050 268.9917  82.9674  1.00290506  7375"},{"CCSDS_OMM_VERS":"3.0","COMMENT":"GENERATED VIA SPACE-TRACK.ORG API","CREATION_DATE":"2026-05-23T17:30:58","ORIGINATOR":"18 SPCS","OBJECT_NAME":"QZS-2","OBJECT_ID":"2017-028A","CENTER_NAME":"EARTH","REF_FRAME":"TEME","TIME_SYSTEM":"UTC","MEAN_ELEMENT_THEORY":"SGP4","EPOCH":"2026-05-22T14:19:23.870784","MEAN_MOTION":"1.00290506","ECCENTRICITY":"0.07610501","INCLINATION":"39.4669","RA_OF_ASC_NODE":"243.5318","ARG_OF_PERICENTER":"268.9917","MEAN_ANOMALY":"82.9674","EPHEMERIS_TYPE":"0","CLASSIFICATION_TYPE":"U","NORAD_CAT_ID":"42738","ELEMENT_SET_NO":"999","REV_AT_EPOCH":"737","BSTAR":"0.00000000000000","MEAN_MOTION_DOT":"-0.00000229","MEAN_MOTION_DDOT":"0.0000000000000","SEMIMAJOR_AXIS":"42159.485","PERIOD":"1435.829","APOAPSIS":"38989.897","PERIAPSIS":"32572.802","OBJECT_TYPE":"PAYLOAD","RCS_SIZE":"LARGE","COUNTRY_CODE":"JPN","LAUNCH_DATE":"2017-06-01","SITE":"TNSTA","DECAY_DATE":null,"FILE":"5210736","GP_ID":"324547248","TLE_LINE0":"0 QZS-2","TLE_LINE1":"1 42738U 17028A   26142.59680406 -.00000229  00000-0  00000-0 0  9999","TLE_LINE2":"2 42738  39.4669 243.5318 0761050 268.9917  82.9674  1.00290506  7376"},{"CCSDS_OMM_VERS":"3.0","COMMENT":"GENERATED VIA SPACE-TRACK.ORG API","CREATION_DATE":"2026-05-23T23:57:06","ORIGINATOR":"18 SPCS","OBJECT_NAME":"QZS-2","OBJECT_ID":"2017-028A","CENTER_NAME":"EARTH","REF_FRAME":"TEME","TIME_SYSTEM":"UTC","MEAN_ELEMENT_THEORY":"SGP4","EPOCH":"2026-05-23T13:42:40.346784","MEAN_MOTION":"1.00290225","ECCENTRICITY":"0.07607160","INCLINATION":"39.4655","RA_OF_ASC_NODE":"243.5175","ARG_OF_PERICENTER":"269.0027","MEAN_ANOMALY":"74.8135","EPHEMERIS_TYPE":"0","CLASSIFICATION_TYPE":"U","NORAD_CAT_ID":"42738","ELEMENT_SET_NO":"999","REV_AT_EPOCH":"737","BSTAR":"0.00000000000000","MEAN_MOTION_DOT":"-0.00000234","MEAN_MOTION_DDOT":"0.0000000000000","SEMIMAJOR_AXIS":"42159.563","PERIOD":"1435.833","APOAPSIS":"38988.574","PERIAPSIS":"32574.283","OBJECT_TYPE":"PAYLOAD","RCS_SIZE":"LARGE","COUNTRY_CODE":"JPN","LAUNCH_DATE":"2017-06-01","SITE":"TNSTA","DECAY_DATE":null,"FILE":"5210981","GP_ID":"324589148","TLE_LINE0":"0 QZS-2","TLE_LINE1":"1 42738U 17028A   26143.57130031 -.00000234  00000-0  00000+0 0  9997","TLE_LINE2":"2 42738  39.4655 243.5175 0760716 269.0027  74.8135  1.00290225  7374"},{"CCSDS_OMM_VERS":"3.0","COMMENT":"GENERATED VIA SPACE-TRACK.ORG API","CREATION_DATE":"2026-05-25T04:06:45","ORIGINATOR":"18 SPCS","OBJECT_NAME":"QZS-2","OBJECT_ID":"2017-028A","CENTER_NAME":"EARTH","REF_FRAME":"TEME","TIME_SYSTEM":"UTC","MEAN_ELEMENT_THEORY":"SGP4","EPOCH":"2026-05-24T14:13:41.801952","MEAN_MOTION":"1.00289926","ECCENTRICITY":"0.07606997","INCLINATION":"39.4639","RA_OF_ASC_NODE":"243.5025","ARG_OF_PERICENTER":"269.0109","MEAN_ANOMALY":"83.6451","EPHEMERIS_TYPE":"0","CLASSIFICATION_TYPE":"U","NORAD_CAT_ID":"42738","ELEMENT_SET_NO":"999","REV_AT_EPOCH":"739","BSTAR":"0.00000000000000","MEAN_MOTION_DOT":"-0.00000234","MEAN_MOTION_DDOT":"0.0000000000000","SEMIMAJOR_AXIS":"42159.647","PERIOD":"1435.837","APOAPSIS":"38988.595","PERIAPSIS":"32574.429","OBJECT_TYPE":"PAYLOAD","RCS_SIZE":"LARGE","COUNTRY_CODE":"JPN","LAUNCH_DATE":"2017-06-01","SITE":"TNSTA","DECAY_DATE":null,"FILE":"5212715","GP_ID":"324759945","TLE_LINE0":"0 QZS-2","TLE_LINE1":"1 42738U 17028A   26144.59284493 -.00000234  00000-0  00000-0 0  9993","TLE_LINE2":"2 42738  39.4639 243.5025 0760700 269.0109  83.6451  1.00289926  7391"},{"CCSDS_OMM_VERS":"3.0","COMMENT":"GENERATED VIA SPACE-TRACK.ORG API","CREATION_DATE":"2026-05-26T10:30:27","ORIGINATOR":"18 SPCS","OBJECT_NAME":"QZS-2","OBJECT_ID":"2017-028A","CENTER_NAME":"EARTH","REF_FRAME":"TEME","TIME_SYSTEM":"UTC","MEAN_ELEMENT_THEORY":"SGP4","EPOCH":"2026-05-25T13:25:01.121664","MEAN_MOTION":"1.00289658","ECCENTRICITY":"0.07606261","INCLINATION":"39.4625","RA_OF_ASC_NODE":"243.4883","ARG_OF_PERICENTER":"269.0192","MEAN_ANOMALY":"72.4917","EPHEMERIS_TYPE":"0","CLASSIFICATION_TYPE":"U","NORAD_CAT_ID":"42738","ELEMENT_SET_NO":"999","REV_AT_EPOCH":"739","BSTAR":"0.00000000000000","MEAN_MOTION_DOT":"-0.00000230","MEAN_MOTION_DDOT":"0.0000000000000","SEMIMAJOR_AXIS":"42159.722","PERIOD":"1435.841","APOAPSIS":"38988.366","PERIAPSIS":"32574.809","OBJECT_TYPE":"PAYLOAD","RCS_SIZE":"LARGE","COUNTRY_CODE":"JPN","LAUNCH_DATE":"2017-06-01","SITE":"TNSTA","DECAY_DATE":null,"FILE":"5214595","GP_ID":"324999976","TLE_LINE0":"0 QZS-2","TLE_LINE1":"1 42738U 17028A   26145.55904076 -.00000230  00000-0  00000-0 0  9992","TLE_LINE2":"2 42738  39.4625 243.4883 0760626 269.0192  72.4917  1.00289658  7391"},{"CCSDS_OMM_VERS":"3.0","COMMENT":"GENERATED VIA SPACE-TRACK.ORG API","CREATION_DATE":"2026-05-27T23:07:14","ORIGINATOR":"18 SPCS","OBJECT_NAME":"QZS-2","OBJECT_ID":"2017-028A","CENTER_NAME":"EARTH","REF_FRAME":"TEME","TIME_SYSTEM":"UTC","MEAN_ELEMENT_THEORY":"SGP4","EPOCH":"2026-05-27T13:20:30.517728","MEAN_MOTION":"1.00289116","ECCENTRICITY":"0.07603010","INCLINATION":"39.4596","RA_OF_ASC_NODE":"243.4590","ARG_OF_PERICENTER":"269.0384","MEAN_ANOMALY":"73.4616","EPHEMERIS_TYPE":"0","CLASSIFICATION_TYPE":"U","NORAD_CAT_ID":"42738","ELEMENT_SET_NO":"999","REV_AT_EPOCH":"741","BSTAR":"0.00000000000000","MEAN_MOTION_DOT":"-0.00000212","MEAN_MOTION_DDOT":"0.0000000000000","SEMIMAJOR_AXIS":"42159.874","PERIOD":"1435.849","APOAPSIS":"38987.159","PERIAPSIS":"32576.320","OBJECT_TYPE":"PAYLOAD","RCS_SIZE":"LARGE","COUNTRY_CODE":"JPN","LAUNCH_DATE":"2017-06-01","SITE":"TNSTA","DECAY_DATE":null,"FILE":"5216701","GP_ID":"325338306","TLE_LINE0":"0 QZS-2","TLE_LINE1":"1 42738U 17028A   26147.55590877 -.00000212  00000-0  00000+0 0  9993","TLE_LINE2":"2 42738  39.4596 243.4590 0760301 269.0384  73.4616  1.00289116  7415"},{"CCSDS_OMM_VERS":"3.0","COMMENT":"GENERATED VIA SPACE-TRACK.ORG API","CREATION_DATE":"2026-05-28T02:30:48","ORIGINATOR":"18 SPCS","OBJECT_NAME":"QZS-2","OBJECT_ID":"2017-028A","CENTER_NAME":"EARTH","REF_FRAME":"TEME","TIME_SYSTEM":"UTC","MEAN_ELEMENT_THEORY":"SGP4","EPOCH":"2026-05-27T13:20:30.518592","MEAN_MOTION":"1.00289116","ECCENTRICITY":"0.07603005","INCLINATION":"39.4596","RA_OF_ASC_NODE":"243.4590","ARG_OF_PERICENTER":"269.0384","MEAN_ANOMALY":"73.4616","EPHEMERIS_TYPE":"0","CLASSIFICATION_TYPE":"U","NORAD_CAT_ID":"42738","ELEMENT_SET_NO":"999","REV_AT_EPOCH":"741","BSTAR":"0.00000000000000","MEAN_MOTION_DOT":"-0.00000212","MEAN_MOTION_DDOT":"0.0000000000000","SEMIMAJOR_AXIS":"42159.874","PERIOD":"1435.849","APOAPSIS":"38987.157","PERIAPSIS":"32576.322","OBJECT_TYPE":"PAYLOAD","RCS_SIZE":"LARGE","COUNTRY_CODE":"JPN","LAUNCH_DATE":"2017-06-01","SITE":"TNSTA","DECAY_DATE":null,"FILE":"5217309","GP_ID":"325411160","TLE_LINE0":"0 QZS-2","TLE_LINE1":"1 42738U 17028A   26147.55590878 -.00000212  00000-0  00000-0 0  9995","TLE_LINE2":"2 42738  39.4596 243.4590 0760301 269.0384  73.4616  1.00289116  7415"},{"CCSDS_OMM_VERS":"3.0","COMMENT":"GENERATED VIA SPACE-TRACK.ORG API","CREATION_DATE":"2026-05-30T21:02:43","ORIGINATOR":"18 SPCS","OBJECT_NAME":"QZS-2","OBJECT_ID":"2017-028A","CENTER_NAME":"EARTH","REF_FRAME":"TEME","TIME_SYSTEM":"UTC","MEAN_ELEMENT_THEORY":"SGP4","EPOCH":"2026-05-29T13:18:27.821088","MEAN_MOTION":"1.00288760","ECCENTRICITY":"0.07611766","INCLINATION":"39.4567","RA_OF_ASC_NODE":"243.4296","ARG_OF_PERICENTER":"269.0517","MEAN_ANOMALY":"75.0389","EPHEMERIS_TYPE":"0","CLASSIFICATION_TYPE":"U","NORAD_CAT_ID":"42738","ELEMENT_SET_NO":"999","REV_AT_EPOCH":"743","BSTAR":"0.00000000000000","MEAN_MOTION_DOT":"-0.00000191","MEAN_MOTION_DDOT":"0.0000000000000","SEMIMAJOR_AXIS":"42159.974","PERIOD":"1435.854","APOAPSIS":"38990.958","PERIAPSIS":"32572.720","OBJECT_TYPE":"PAYLOAD","RCS_SIZE":"LARGE","COUNTRY_CODE":"JPN","LAUNCH_DATE":"2017-06-01","SITE":"TNSTA","DECAY_DATE":null,"FILE":"5223167","GP_ID":"326095493","TLE_LINE0":"0 QZS-2","TLE_LINE1":"1 42738U 17028A   26149.55448867 -.00000191  00000-0  00000-0 0  9993","TLE_LINE2":"2 42738  39.4567 243.4296 0761177 269.0517  75.0389  1.00288760  7437"}]